<?xml version="1.0" encoding="UTF-8"?>
<kml xmlns="http://www.opengis.net/kml/2.2">
  <Document>
    <name>2026 蝢 17 憭抵?嗉?撱箇??芷??祈楝??</name>
    <description>??舫??ㄞ摨??航??芷???璅?嚗?湔?臬 Google ???啣? (Google My Maps)</description>
    <Folder>
      <name>? 雿挪憌臬???暺?/name>
      <Placemark>
        <name>Hyatt Regency Reston (Base 1)</name>
        <description>Day 1-3 雿挪??嚗漱??瘣餅??賢??/description>
        <Point><coordinates>-77.3570,38.9587,0</coordinates></Point>
      </Placemark>
      <Placemark>
        <name>Skyland Lodge (Shenandoah)</name>
        <description>Day 3 隞?摨血?摰嗅???典?嚗???Skyline Drive ?雿唾???</description>
        <Point><coordinates>-78.3809,38.5921,0</coordinates></Point>
      </Placemark>
      <Placemark>
        <name>The George Washington Hotel</name>
        <description>Day 4 皞怠器?舐甇瑕憸冽憌臬?</description>
        <Point><coordinates>-78.1636,39.1843,0</coordinates></Point>
      </Placemark>
      <Placemark>
        <name>Hyatt Place State College</name>
        <description>Day 5 鞈?撌?憭批飛?ㄞ摨?/description>
        <Point><coordinates>-77.8600,40.7934,0</coordinates></Point>
      </Placemark>
      <Placemark>
        <name>Watkins Glen Harbor Hotel</name>
        <description>Day 6-7 憛?⊥?????皝憌臬?</description>
        <Point><coordinates>-76.8725,42.3812,0</coordinates></Point>
      </Placemark>
      <Placemark>
        <name>Hyatt Place Niagara Falls</name>
        <description>Day 8 甇亥??喳側?????砍???5 ??</description>
        <Point><coordinates>-79.0614,43.0858,0</coordinates></Point>
      </Placemark>
      <Placemark>
        <name>The Industrialist Hotel Pittsburgh</name>
        <description>Day 9 ?寡?∪?銝剖?蝎曉?甇瑕憌臬?</description>
        <Point><coordinates>-79.9959,40.4406,0</coordinates></Point>
      </Placemark>
      <Placemark>
        <name>Penn Wells Hotel</name>
        <description>Day 10 ?賣偌撅梯??券??寡?挪</description>
        <Point><coordinates>-77.2964,41.7476,0</coordinates></Point>
      </Placemark>
      <Placemark>
        <name>Residence Inn Rosslyn Arlington</name>
        <description>Day 11-16 ?舐??C??嚗?撱?噶?拙?頠?/description>
        <Point><coordinates>-77.0712,38.8951,0</coordinates></Point>
      </Placemark>
    </Folder>
    <Folder>
      <name>?? Day 1-3 ?舐??C &amp; 隞?摨血??/name>
      <Placemark>
        <name>Washington Dulles Airport (IAD)</name>
        <description>韏琿????賢????湛??????圈?</description>
        <Point><coordinates>-77.4565,38.9531,0</coordinates></Point>
      </Placemark>
      <Placemark>
        <name>Silver Diner Reston</name>
        <description>蝢?憭挾???皝舫?撱?/description>
        <Point><coordinates>-77.3601,38.9542,0</coordinates></Point>
      </Placemark>
      <Placemark>
        <name>Great Falls Park (憭抒??振?砍?)</name>
        <description>瘜Ｘ?擐砍?瘝喳楊?喟?憟??Billy Goat Trail</description>
        <Point><coordinates>-77.2541,38.9986,0</coordinates></Point>
      </Placemark>
      <Placemark>
        <name>Skyline Drive Thornton Gap Entrance</name>
        <description>隞?摨血?摰嗅??舀閫?楝?亙</description>
        <Point><coordinates>-78.3211,38.6607,0</coordinates></Point>
      </Placemark>
      <Placemark>
        <name>Stony Man Trail Summit Overlook</name>
        <description>頛?甇仿?嚗膳?啗?撊箏控??蝢??/description>
        <Point><coordinates>-78.3734,38.5982,0</coordinates></Point>
      </Placemark>
      <Placemark>
        <name>Old Rag Mountain Trailhead</name>
        <description>?喳??勗?撗拙楊?單??砍銵陸??/description>
        <Point><coordinates>-78.2869,38.5707,0</coordinates></Point>
      </Placemark>
      <Placemark>
        <name>Big Meadows Lodge</name>
        <description>憭扯??閫???Spottswood 擗輒</description>
        <Point><coordinates>-78.4367,38.5181,0</coordinates></Point>
      </Placemark>
    </Folder>
    <Folder>
      <name>? Day 4-6 ?像?單?, 鞈?颲脰?????</name>
      <Placemark>
        <name>Luray Caverns (?折?像?單?)</name>
        <description>蝢閬芋?憭折?銋喟?啣?憟??銝恣憸函</description>
        <Point><coordinates>-78.4839,38.6644,0</coordinates></Point>
      </Placemark>
      <Placemark>
        <name>Gettysburg National Military Park</name>
        <description>???臬???啁甇瑕蝝敹萄?摰嗅??/description>
        <Point><coordinates>-77.2312,39.8142,0</coordinates></Point>
      </Placemark>
      <Placemark>
        <name>The Amish Farm and House</name>
        <description>?剝??舐?輻掖隞?喟絞颲脰?擃??收頠?撽?/description>
        <Point><coordinates>-76.2163,40.0275,0</coordinates></Point>
      </Placemark>
      <Placemark>
        <name>Shady Maple Smorgasbord</name>
        <description>?函??憭抒?撘?拚?蝢?擖捎</description>
        <Point><coordinates>-76.0272,40.1065,0</coordinates></Point>
      </Placemark>
      <Placemark>
        <name>Corning Museum of Glass</name>
        <description>銝???摨瑕祐?餌????擗刻??寧?”瞍?/description>
        <Point><coordinates>-77.0543,42.1432,0</coordinates></Point>
      </Placemark>
      <Placemark>
        <name>Watkins Glen State Park Gorge Trail</name>
        <description>鈭?皝????19 摨抒?撜質健甇仿?</description>
        <Point><coordinates>-76.8732,42.3756,0</coordinates></Point>
      </Placemark>
    </Folder>
    <Folder>
      <name>?? Day 7-11 蝬箄雿? 撠澆??? &amp; ?寡??/name>
      <Placemark>
        <name>Taughannock Falls State Park</name>
        <description>?賢榆??65 ?砍偕嚗?頞側?????桅??賢榆嚗?擃征??</description>
        <Point><coordinates>-76.6001,42.5358,0</coordinates></Point>
      </Placemark>
      <Placemark>
        <name>Cornell University (摨瑚??曉之摮?</name>
        <description>?斗?∪?撌∠旨?cGraw Tower ?魚靚瑕?璈?/description>
        <Point><coordinates>-76.4735,42.4534,0</coordinates></Point>
      </Placemark>
      <Placemark>
        <name>Letchworth State Park (蝢憭批魚靚?</name>
        <description>蝢憭批魚靚瑕ㄞ暻?撅文之??憟?</description>
        <Point><coordinates>-77.9744,42.5701,0</coordinates></Point>
      </Placemark>
      <Placemark>
        <name>Niagara Falls State Park</name>
        <description>?找葉撠戊??(Maid of the Mist) ?◢銋? (Cave of the Winds)</description>
        <Point><coordinates>-79.0642,43.0815,0</coordinates></Point>
      </Placemark>
      <Placemark>
        <name>Top of the Falls Restaurant</name>
        <description>?函??臭?摨扯?潮收頩????冽蝢擗輒</description>
        <Point><coordinates>-79.0689,43.0822,0</coordinates></Point>
      </Placemark>
      <Placemark>
        <name>Presque Isle State Park (Erie)</name>
        <description>隡皝予?嗆?瘣脣?撜嗉?憭閫?臬</description>
        <Point><coordinates>-80.1118,42.1601,0</coordinates></Point>
      </Placemark>
      <Placemark>
        <name>Duquesne Incline (?寡?∠?頠?</name>
        <description>?曉僑敺拙蝥?嚗?膳?唬?瘝喃漱????/description>
        <Point><coordinates>-80.0181,40.4398,0</coordinates></Point>
      </Placemark>
    </Folder>
    <Folder>
      <name>?? Day 12-14 ?賣偌撅梯? &amp; ?舐??C??</name>
      <Placemark>
        <name>Fallingwater (?賣偌撅梯?)</name>
        <description>Frank Lloyd Wright ?曆誨撱箇?憭批葦蝬銝??箇雿?</description>
        <Point><coordinates>-79.4678,39.9063,0</coordinates></Point>
      </Placemark>
      <Placemark>
        <name>Kentuck Knob</name>
        <description>??撱箇?隞?”雿????砍?</description>
        <Point><coordinates>-79.5218,39.8732,0</coordinates></Point>
      </Placemark>
      <Placemark>
        <name>Natural Bridge State Park (VA)</name>
        <description>擃? 66 ?砍偕?予?嗅楊?單璈?閫</description>
        <Point><coordinates>-79.5447,37.6284,0</coordinates></Point>
      </Placemark>
      <Placemark>
        <name>Smithsonian National Museum of Natural History</name>
        <description>?脣?璉桀側???芰甇瑕?擗剁????樴??喉?</description>
        <Point><coordinates>-77.0261,38.8913,0</coordinates></Point>
      </Placemark>
      <Placemark>
        <name>United States Botanic Garden</name>
        <description>蝢??振璊?澈摰方?皞怠葆?勗?</description>
        <Point><coordinates>-77.0127,38.8887,0</coordinates></Point>
      </Placemark>
      <Placemark>
        <name>National Mall &amp; Washington Monument</name>
        <description>?振撱?憭扯??芾??舐???敹萇?</description>
        <Point><coordinates>-77.0352,38.8895,0</coordinates></Point>
      </Placemark>
      <Placemark>
        <name>Old Ebbitt Grill</name>
        <description>DC ?曉僑甇瑕?踵祥??瘚琿悅擗輒</description>
        <Point><coordinates>-77.0331,38.8979,0</coordinates></Point>
      </Placemark>
    </Folder>
    <Folder>
      <name>?? Day 15-17 鞈潛, ?祆祥??&amp; 餈?</name>
      <Placemark>
        <name>Georgetown Historic District</name>
        <description>?祆祥?頩???蝡?摨?瘝喟??航?</description>
        <Point><coordinates>-77.0628,38.9051,0</coordinates></Point>
      </Placemark>
      <Placemark>
        <name>Old Town Alexandria Waterfront</name>
        <description>鈭風撅勗??日皜臬??輯楝甇瑕銵?</description>
        <Point><coordinates>-77.0423,38.8048,0</coordinates></Point>
      </Placemark>
      <Placemark>
        <name>REI Co-op DC Flagship Store</name>
        <description>蝢?憭?REI ?嗅??典??摨?/description>
        <Point><coordinates>-77.0042,38.9056,0</coordinates></Point>
      </Placemark>
      <Placemark>
        <name>Fashion Centre at Pentagon City</name>
        <description>憭扯摨?鞈潛銝剖????鞈?/description>
        <Point><coordinates>-77.0592,38.8624,0</coordinates></Point>
      </Placemark>
      <Placemark>
        <name>National Air and Space Museum Udvar-Hazy Center</name>
        <description>撅?潛?云蝛箸╲??SR-71 暺野?萄?璈?撌典??芸云擗?/description>
        <Point><coordinates>-77.4442,38.9108,0</coordinates></Point>
      </Placemark>
    </Folder>
  </Document>
</kml>
